NORAD_CAT_ID,OBJECT_NAME,OBJECT_TYPE,EPOCH,MEAN_MOTION,ECCENTRICITY,INCLINATION,RA_OF_ASC_NODE,ARG_OF_PERICENTER,MEAN_ANOMALY,BSTAR,MEAN_MOTION_DOT,MEAN_MOTION_DDOT,TLE_LINE0,TLE_LINE1,TLE_LINE2,SEMIMAJOR_AXIS,PERIOD,APOGEE,PERIGEE,DECAYED
55417.0,STARLINK-5616,PAYLOAD,2024-06-28 11:33:21,14.98336902,0.0003792,69.9994,205.5821,267.1741,92.8984,3.2571e-05,2.96e-06,0.0,0 STARLINK-5616,1 55417U 23014AC  24180.48150020  .00000296  00000-0  32571-4 0  9996,2 55417  69.9994 205.5821 0003792 267.1741  92.8984 14.98336902 78811,6950.172,96.107,574.672,569.401,0.0
55417.0,STARLINK-5616,PAYLOAD,2024-06-29 05:10:49,14.98338794,0.0003784,69.9993,203.7305,266.9064,93.1662,-1.4965e-06,-1.11e-06,0.0,0 STARLINK-5616,1 55417U 23014AC  24181.21585634 -.00000111  00000-0 -14965-5 0  9997,2 55417  69.9993 203.7305 0003784 266.9064  93.1662 14.98338794 78923,6950.166,96.106,574.661,569.401,0.0
55417.0,STARLINK-5616,PAYLOAD,2024-06-29 11:35:22,14.98339092,0.000378,69.9992,203.0572,266.9349,93.1377,1.982e-06,-6.9e-07,0.0,0 STARLINK-5616,1 55417U 23014AC  24181.48289455 -.00000069  00000-0  19820-5 0  9994,2 55417  69.9992 203.0572 0003780 266.9349  93.1377 14.98339092 78962,6950.165,96.106,574.657,569.403,0.0
55417.0,STARLINK-5616,PAYLOAD,2024-06-30 05:12:50,14.98332827,0.0003744,69.9992,201.2048,267.171,92.9021,4.739e-05,4.72e-06,0.0,0 STARLINK-5616,1 55417U 23014AC  24182.21725521  .00000472  00000-0  47390-4 0  9994,2 55417  69.9992 201.2048 0003744 267.1710  92.9021 14.98332827 79070,6950.184,96.107,574.651,569.447,0.0
55417.0,STARLINK-5616,PAYLOAD,2024-06-30 10:01:14,14.98341785,0.0003647,69.9996,200.7011,266.0129,94.0613,0.00014565,1.646e-05,0.0,0 STARLINK-5616,1 55417U 23014AC  24182.41752622  .00001646  00000-0  14565-3 0  9999,2 55417  69.9996 200.7011 0003647 266.0129  94.0613 14.98341785 79109,6950.156,96.106,574.556,569.487,0.0
55417.0,STARLINK-5616,PAYLOAD,2024-06-30 11:37:22,14.98341417,0.0003663,69.9995,200.5328,266.177,93.8971,0.00013862,1.562e-05,0.0,0 STARLINK-5616,1 55417U 23014AC  24182.48428621  .00001562  00000-0  13862-3 0  9991,2 55417  69.9995 200.5328 0003663 266.1770  93.8971 14.98341417 79115,6950.158,96.106,574.568,569.477,0.0
55417.0,STARLINK-5616,PAYLOAD,2024-06-30 18:01:55,14.98336452,0.0003374,70.0006,199.8582,270.9835,89.0938,-1.6287e-05,-2.87e-06,0.0,0 STARLINK-5616,1 55417U 23014AC  24182.75133267 -.00000287  00000-0 -16287-4 0  9990,2 55417  70.0006 199.8582 0003374 270.9835  89.0938 14.98336452 79154,6950.173,96.107,574.383,569.693,0.0
55417.0,STARLINK-5616,PAYLOAD,2024-07-01 05:14:55,14.98283092,0.0004415,69.9994,198.6808,284.2119,75.8549,-0.00050009,-6.048e-05,0.0,0 STARLINK-5616,1 55417U 23014AC  24183.21869870 -.00006048  00000-0 -50009-3 0  9998,2 55417  69.9994 198.6808 0004415 284.2119  75.8549 14.98283092 79225,6950.338,96.11,575.272,569.134,0.0
55417.0,STARLINK-5616,PAYLOAD,2024-07-01 11:39:26,14.98304031,0.0004412,69.9982,198.0038,253.5146,106.5529,-0.0002753,-3.375e-05,0.0,0 STARLINK-5616,1 55417U 23014AC  24183.48572373 -.00003375  00000-0 -27530-3 0  9999,2 55417  69.9982 198.0038 0004412 253.5146 106.5529 14.98304031 79268,6950.273,96.109,575.205,569.072,0.0
55417.0,STARLINK-5616,PAYLOAD,2024-07-01 18:03:57,14.98325951,0.0004139,69.9992,197.3323,270.4635,89.605,-1.9763e-05,-3.29e-06,0.0,0 STARLINK-5616,1 55417U 23014AC  24183.75274755 -.00000329  00000-0 -19763-4 0  9998,2 55417  69.9992 197.3323 0004139 270.4635  89.6050 14.98325951 79304,6950.205,96.107,574.947,569.194,0.0
55417.0,STARLINK-5616,PAYLOAD,2024-07-02 05:16:51,14.98359382,0.0003878,69.9989,196.1548,271.6123,88.4592,0.00023303,2.691e-05,0.0,0 STARLINK-5616,1 55417U 23014AC  24184.22003942  .00002691  00000-0  23303-3 0  9995,2 55417  69.9989 196.1548 0003878 271.6123  88.4592 14.98359382 79370,6950.102,96.105,574.662,569.272,0.0
55417.0,STARLINK-5616,PAYLOAD,2024-07-02 10:05:15,14.98360551,0.0003785,69.9995,195.6502,271.3249,88.7476,0.0002442,2.824e-05,0.0,0 STARLINK-5616,1 55417U 23014AC  24184.42031500  .00002824  00000-0  24420-3 0  9997,2 55417  69.9995 195.6502 0003785 271.3249  88.7476 14.98360551 79402,6950.098,96.105,574.594,569.333,0.0
55417.0,STARLINK-5616,PAYLOAD,2024-07-02 18:05:56,14.98345533,0.000346,70.0006,194.8085,271.4995,88.5768,0.00014141,1.595e-05,0.0,0 STARLINK-5616,1 55417U 23014AC  24184.75412425  .00001595  00000-0  14141-3 0  9995,2 55417  70.0006 194.8085 0003460 271.4995  88.5768 14.98345533 79454,6950.145,96.106,574.415,569.605,0.0
55417.0,STARLINK-5616,PAYLOAD,2024-07-03 03:42:46,14.98321828,0.0003919,69.9988,193.7986,269.1142,90.9567,5.1424e-05,5.2e-06,0.0,0 STARLINK-5616,1 55417U 23014AC  24185.15469939  .00000520  00000-0  51424-4 0  9995,2 55417  69.9988 193.7986 0003919 269.1142  90.9567 14.98321828 79517,6950.218,96.108,574.807,569.359,0.0
55417.0,STARLINK-5616,PAYLOAD,2024-07-03 18:07:59,14.98313205,0.0003925,69.9991,192.2835,272.5329,87.5381,0.00028482,3.306e-05,0.0,0 STARLINK-5616,1 55417U 23014AC  24185.75554508  .00003306  00000-0  28482-3 0  9990,2 55417  69.9991 192.2835 0003925 272.5329  87.5381 14.98313205 79606,6950.245,96.108,574.838,569.382,0.0
55417.0,STARLINK-5616,PAYLOAD,2024-07-04 05:20:54,14.98341895,0.0003781,69.9992,191.1056,268.236,91.8366,-0.0002344,-2.89e-05,0.0,0 STARLINK-5616,1 55417U 23014AC  24186.22285678 -.00002890  00000-0 -23440-3 0  9990,2 55417  69.9992 191.1056 0003781 268.2360  91.8366 14.98341895 79671,6950.156,96.106,574.649,569.393,0.0
55417.0,STARLINK-5616,PAYLOAD,2024-07-04 10:09:18,14.98342157,0.0003983,69.9991,190.6005,271.6415,88.4288,-0.00021741,-2.687e-05,0.0,0 STARLINK-5616,1 55417U 23014AC  24186.42313474 -.00002687  00000-0 -21741-3 0  9994,2 55417  69.9991 190.6005 0003983 271.6415  88.4288 14.98342157 79702,6950.155,96.106,574.789,569.252,0.0
55417.0,STARLINK-5616,PAYLOAD,2024-07-04 22:58:23,14.98326637,0.0003794,69.9991,189.254,266.7024,93.3701,0.00010261,1.131e-05,0.0,0 STARLINK-5616,1 55417U 23014AC  24186.95721401  .00001131  00000-0  10261-3 0  9991,2 55417  69.9991 189.2540 0003794 266.7024  93.3701 14.98326637 79789,6950.203,96.107,574.705,569.431,0.0
55417.0,STARLINK-5616,PAYLOAD,2024-07-05 10:11:19,14.98330025,0.000379,69.9991,188.0758,266.6506,93.4219,0.00011788,1.314e-05,0.0,0 STARLINK-5616,1 55417U 23014AC  24187.42453258  .00001314  00000-0  11788-3 0  9994,2 55417  69.9991 188.0758 0003790 266.6506  93.4219 14.98330025 79856,6950.193,96.107,574.692,569.424,0.0
55417.0,STARLINK-5616,PAYLOAD,2024-07-06 05:24:57,14.98322405,0.0004044,69.999,186.0562,262.2805,97.7895,6.3019e-06,-1.8e-07,0.0,0 STARLINK-5616,1 55417U 23014AC  24188.22566059 -.00000018  00000-0  63019-5 0  9994,2 55417  69.9990 186.0562 0004044 262.2805  97.7895 14.98322405 79976,6950.216,96.107,574.892,569.271,0.0
55417.0,STARLINK-5616,PAYLOAD,2024-07-06 10:13:23,14.98295016,0.0003946,69.9994,185.5512,266.3926,93.6781,-0.00028589,-3.5e-05,0.0,0 STARLINK-5616,1 55417U 23014AC  24188.42596996 -.00003500  00000-0 -28589-3 0  9990,2 55417  69.9994 185.5512 0003946 266.3926  93.6781 14.98295016 80000,6950.301,96.109,574.909,569.423,0.0
55417.0,STARLINK-5616,PAYLOAD,2024-07-06 16:37:55,14.98311603,0.0003987,69.9992,184.8779,261.9634,98.1073,-0.00010999,-1.405e-05,0.0,0 STARLINK-5616,1 55417U 23014AC  24188.69299846 -.00001405  00000-0 -10999-3 0  9991,2 55417  69.9992 184.8779 0003987 261.9634  98.1073 14.98311603 80046,6950.25,96.108,574.886,569.344,0.0
55417.0,STARLINK-5616,PAYLOAD,2024-07-07 05:26:58,14.98325513,0.000414,69.9991,183.531,264.1976,95.8711,3.0981e-05,2.76e-06,0.0,0 STARLINK-5616,1 55417U 23014AC  24189.22707008  .00000276  00000-0  30981-4 0  9992,2 55417  69.9991 183.5310 0004140 264.1976  95.8711 14.98325513 80125,6950.207,96.107,574.949,569.194,0.0
55417.0,STARLINK-5616,PAYLOAD,2024-07-07 10:15:23,14.98326556,0.0003808,69.9996,183.0269,265.013,95.0595,4.477e-05,4.41e-06,0.0,0 STARLINK-5616,1 55417U 23014AC  24189.42735063  .00000441  00000-0  44770-4 0  9991,2 55417  69.9996 183.0269 0003808 265.0130  95.0595 14.98326556 80153,6950.204,96.107,574.715,569.422,0.0
55417.0,STARLINK-5616,PAYLOAD,2024-07-08 08:41:15,14.98325405,0.0004116,69.9995,180.67,263.2452,96.8239,0.00022279,2.566e-05,0.0,0 STARLINK-5616,1 55417U 23014AC  24190.36198969  .00002566  00000-0  22279-3 0  9993,2 55417  69.9995 180.6700 0004116 263.2452  96.8239 14.98325405 80296,6950.207,96.107,574.933,569.211,0.0
55417.0,STARLINK-5616,PAYLOAD,2024-07-08 23:06:28,14.9833616,0.0004046,69.9995,179.1552,260.0745,99.9957,0.00014303,1.614e-05,0.0,0 STARLINK-5616,1 55417U 23014AC  24190.96282854  .00001614  00000-0  14303-3 0  9998,2 55417  69.9995 179.1552 0004046 260.0745  99.9957 14.98336160 80387,6950.174,96.107,574.851,569.227,0.0
55417.0,STARLINK-5616,PAYLOAD,2024-07-09 08:43:16,14.98339316,0.0004079,69.9994,178.1452,260.389,99.6809,0.00015255,1.728e-05,0.0,0 STARLINK-5616,1 55417U 23014AC  24191.36338464  .00001728  00000-0  15255-3 0  9995,2 55417  69.9994 178.1452 0004079 260.3890  99.6809 14.98339316 80440,6950.164,96.106,574.864,569.194,0.0
55417.0,STARLINK-5616,PAYLOAD,2024-07-09 23:08:28,14.98386098,0.0003675,69.9994,176.6304,266.6374,93.4365,-0.00068196,-8.233e-05,0.0,0 STARLINK-5616,1 55417U 23014AC  24191.96421702 -.00008233  00000-0 -68196-3 0  9991,2 55417  69.9994 176.6304 0003675 266.6374  93.4365 14.98386098 80534,6950.019,96.103,574.439,569.33,0.0
55417.0,STARLINK-5616,PAYLOAD,2024-07-10 08:45:15,14.98379055,0.0003704,69.9995,175.6205,267.0021,93.0714,-0.00056901,-6.885e-05,0.0,0 STARLINK-5616,1 55417U 23014AC  24192.36476636 -.00006885  00000-0 -56901-3 0  9994,2 55417  69.9995 175.6205 0003704 267.0021  93.0714 14.98379055 80596,6950.041,96.104,574.48,569.332,0.0
55417.0,STARLINK-5616,PAYLOAD,2024-07-10 16:45:57,14.98341545,0.0004025,69.9995,174.7787,260.481,99.5894,7.4042e-05,7.91e-06,0.0,0 STARLINK-5616,1 55417U 23014AC  24192.69857651  .00000791  00000-0  74042-4 0  9995,2 55417  69.9995 174.7787 0004025 260.4810  99.5894 14.98341545 80640,6950.157,96.106,574.82,569.225,0.0
